{"type": "FeatureCollection", "features": [ {"type": "Feature", "properties": {"norad_id": 66582, "name": "STARLINK-35746", "group": "last-30-days", "lat": 41.41695927744099, "lon": -78.17670671046625, "alt_km": 344.2970877715834, "timestamp": "2025-12-03T22:42:31.476710+00:00", "meta": {"OBJECT_NAME": "STARLINK-35746", "OBJECT_ID": "2025-268AB", "EPOCH": "2025-12-03T12:00:02.998944", "MEAN_MOTION": 15.75060021, "ECCENTRICITY": 0.0001479, "INCLINATION": 42.9988, "RA_OF_ASC_NODE": 175.7387, "ARG_OF_PERICENTER": 273.1132, "MEAN_ANOMALY": 179.3965, "EPHEMERIS_TYPE": 0, "CLASSIFICATION_TYPE": "U", "NORAD_CAT_ID": 66582, "ELEMENT_SET_NO": 999, "REV_AT_EPOCH": 318, "BSTAR": -0.013819, "MEAN_MOTION_DOT": -0.01854686, "MEAN_MOTION_DDOT": 0}, "tle": {"line1": "1 66582U 25268AB  25337.50003471 -.01854686  00000+0 -13819-1 0  9992", "line2": "2 66582  42.9988 175.7387 0001479 273.1132 179.3965 15.75060021  3186"}}, "geometry": {"type": "Point", "coordinates": [-78.17670671046625, 41.41695927744099]}}, {"type": "Feature", "properties": {"norad_id": 66583, "name": "STARLINK-35941", "group": "last-30-days", "lat": 40.96871079228815, "lon": -75.70024268371789, "alt_km": 344.429477516901, "timestamp": "2025-12-03T22:42:31.476720+00:00", "meta": {"OBJECT_NAME": "STARLINK-35941", "OBJECT_ID": "2025-268AC", "EPOCH": "2025-12-03T12:00:02.998944", "MEAN_MOTION": 15.75066778, "ECCENTRICITY": 0.0001551, "INCLINATION": 42.9989, "RA_OF_ASC_NODE": 175.7339, "ARG_OF_PERICENTER": 269.2632, "MEAN_ANOMALY": 185.1725, "EPHEMERIS_TYPE": 0, "CLASSIFICATION_TYPE": "U", "NORAD_CAT_ID": 66583, "ELEMENT_SET_NO": 999, "REV_AT_EPOCH": 318, "BSTAR": -0.013975, "MEAN_MOTION_DOT": -0.01873413, "MEAN_MOTION_DDOT": 0}, "tle": {"line1": "1 66583U 25268AC  25337.50003471 -.01873413  00000+0 -13975-1 0  9995", "line2": "2 66583  42.9989 175.7339 0001551 269.2632 185.1725 15.75066778  3181"}}, "geometry": {"type": "Point", "coordinates": [-75.70024268371789, 40.96871079228815]}}, {"type": "Feature", "properties": {"norad_id": 66584, "name": "STARLINK-35939", "group": "last-30-days", "lat": 40.46897550460639, "lon": -73.2638229228582, "alt_km": 344.3242114663035, "timestamp": "2025-12-03T22:42:31.476731+00:00", "meta": {"OBJECT_NAME": "STARLINK-35939", "OBJECT_ID": "2025-268AD", "EPOCH": "2025-12-03T12:00:02.998944", "MEAN_MOTION": 15.75066007, "ECCENTRICITY": 0.0001399, "INCLINATION": 42.9989, "RA_OF_ASC_NODE": 175.7294, "ARG_OF_PERICENTER": 262.2363, "MEAN_ANOMALY": 194.1151, "EPHEMERIS_TYPE": 0, "CLASSIFICATION_TYPE": "U", "NORAD_CAT_ID": 66584, "ELEMENT_SET_NO": 999, "REV_AT_EPOCH": 318, "BSTAR": -0.013954, "MEAN_MOTION_DOT": -0.01870846, "MEAN_MOTION_DDOT": 0}, "tle": {"line1": "1 66584U 25268AD  25337.50003471 -.01870846  00000+0 -13954-1 0  9990", "line2": "2 66584  42.9989 175.7294 0001399 262.2363 194.1151 15.75066007  3184"}}, "geometry": {"type": "Point", "coordinates": [-73.2638229228582, 40.46897550460639]}}, {"type": "Feature", "properties": {"norad_id": 66585, "name": "STARLINK-35963", "group": "last-30-days", "lat": 39.91895064563012, "lon": -70.86617260696008, "alt_km": 344.7953006483549, "timestamp": "2025-12-03T22:42:31.476740+00:00", "meta": {"OBJECT_NAME": "STARLINK-35963", "OBJECT_ID": "2025-268AE", "EPOCH": "2025-12-03T12:00:02.998944", "MEAN_MOTION": 15.7504666, "ECCENTRICITY": 0.0001948, "INCLINATION": 42.9989, "RA_OF_ASC_NODE": 175.7251, "ARG_OF_PERICENTER": 269.9101, "MEAN_ANOMALY": 188.3587, "EPHEMERIS_TYPE": 0, "CLASSIFICATION_TYPE": "U", "NORAD_CAT_ID": 66585, "ELEMENT_SET_NO": 999, "REV_AT_EPOCH": 318, "BSTAR": -0.013717, "MEAN_MOTION_DOT": -0.01842266, "MEAN_MOTION_DDOT": 0}, "tle": {"line1": "1 66585U 25268AE  25337.50003471 -.01842266  00000+0 -13717-1 0  9993", "line2": "2 66585  42.9989 175.7251 0001948 269.9101 188.3587 15.75046660  3183"}}, "geometry": {"type": "Point", "coordinates": [-70.86617260696008, 39.91895064563012]}}, {"type": "Feature", "properties": {"norad_id": 66586, "name": "TJS-21", "group": "last-30-days", "lat": -9.143833836564879, "lon": 164.42351044203372, "alt_km": 12395.934180555934, "timestamp": "2025-12-03T22:42:31.476752+00:00", "meta": {"OBJECT_NAME": "TJS-21", "OBJECT_ID": "2025-269A", "EPOCH": "2025-11-22T00:38:56.616288", "MEAN_MOTION": 2.0099221, "ECCENTRICITY": 0.75179873, "INCLINATION": 51.0366, "RA_OF_ASC_NODE": 174.7096, "ARG_OF_PERICENTER": 225.0489, "MEAN_ANOMALY": 41.6572, "EPHEMERIS_TYPE": 0, "CLASSIFICATION_TYPE": "U", "NORAD_CAT_ID": 66586, "ELEMENT_SET_NO": 999, "REV_AT_EPOCH": 2, "BSTAR": 0.00053569978, "MEAN_MOTION_DOT": 3.197e-05, "MEAN_MOTION_DDOT": 0}, "tle": {"line1": "1 66586U 25269A   25326.02704417  .00003197  00000+0  53570-3 0  9990", "line2": "2 66586  51.0366 174.7096 7517987 225.0489  41.6572  2.00992210    24"}}, "geometry": {"type": "Point", "coordinates": [164.42351044203372, -9.143833836564879]}}, {"type": "Feature", "properties": {"norad_id": 66587, "name": "CZ-3B R/B", "group": "last-30-days", "lat": 7.6111687575428135, "lon": 177.7540907542106, "alt_km": 22143.9505963103, "timestamp": "2025-12-03T22:42:31.476767+00:00", "meta": {"OBJECT_NAME": "CZ-3B R/B", "OBJECT_ID": "2025-269B", "EPOCH": "2025-11-23T12:20:01.405824", "MEAN_MOTION": 2.01516013, "ECCENTRICITY": 0.75253415, "INCLINATION": 51.3768, "RA_OF_ASC_NODE": 174.0599, "ARG_OF_PERICENTER": 225.2938, "MEAN_ANOMALY": 41.2116, "EPHEMERIS_TYPE": 0, "CLASSIFICATION_TYPE": "U", "NORAD_CAT_ID": 66587, "ELEMENT_SET_NO": 999, "REV_AT_EPOCH": 6, "BSTAR": 0.00049596604, "MEAN_MOTION_DOT": 0.0001032, "MEAN_MOTION_DDOT": -9.13844e-07}, "tle": {"line1": "1 66587U 25269B   25327.51390516  .00010320 -91384-6  49597-3 0  9990", "line2": "2 66587  51.3768 174.0599 7525341 225.2938  41.2116  2.01516013    67"}}, "geometry": {"type": "Point", "coordinates": [177.7540907542106, 7.6111687575428135]}}, {"type": "Feature", "properties": {"norad_id": 66588, "name": "STARLINK-36076", "group": "last-30-days", "lat": -22.108533758631253, "lon": 90.86584539292937, "alt_km": 344.2994740439626, "timestamp": "2025-12-03T22:42:31.476781+00:00", "meta": {"OBJECT_NAME": "STARLINK-36076", "OBJECT_ID": "2025-270A", "EPOCH": "2025-12-03T08:00:01.999008", "MEAN_MOTION": 15.77707206, "ECCENTRICITY": 0.0001805, "INCLINATION": 42.9989, "RA_OF_ASC_NODE": 248.7468, "ARG_OF_PERICENTER": 267.662, "MEAN_ANOMALY": 63.0938, "EPHEMERIS_TYPE": 0, "CLASSIFICATION_TYPE": "U", "NORAD_CAT_ID": 66588, "ELEMENT_SET_NO": 999, "REV_AT_EPOCH": 288, "BSTAR": -0.010366, "MEAN_MOTION_DOT": -0.01567957, "MEAN_MOTION_DDOT": 0}, "tle": {"line1": "1 66588U 25270A   25337.33335647 -.01567957  00000+0 -10366-1 0  9991", "line2": "2 66588  42.9989 248.7468 0001805 267.6620  63.0938 15.77707206  2887"}}, "geometry": {"type": "Point", "coordinates": [90.86584539292937, -22.108533758631253]}}, {"type": "Feature", "properties": {"norad_id": 66589, "name": "STARLINK-35447", "group": "last-30-days", "lat": -24.423562201420072, "lon": 94.17611735171873, "alt_km": 344.318209448742, "timestamp": "2025-12-03T22:42:31.476790+00:00", "meta": {"OBJECT_NAME": "STARLINK-35447", "OBJECT_ID": "2025-270B", "EPOCH": "2025-12-03T08:00:01.999008", "MEAN_MOTION": 15.77723151, "ECCENTRICITY": 0.0001715, "INCLINATION": 42.9988, "RA_OF_ASC_NODE": 248.7369, "ARG_OF_PERICENTER": 264.208, "MEAN_ANOMALY": 70.3484, "EPHEMERIS_TYPE": 0, "CLASSIFICATION_TYPE": "U", "NORAD_CAT_ID": 66589, "ELEMENT_SET_NO": 999, "REV_AT_EPOCH": 299, "BSTAR": -0.010389, "MEAN_MOTION_DOT": -0.01571882, "MEAN_MOTION_DDOT": 0}, "tle": {"line1": "1 66589U 25270B   25337.33335647 -.01571882  00000+0 -10389-1 0  9999", "line2": "2 66589  42.9988 248.7369 0001715 264.2080  70.3484 15.77723151  2996"}}, "geometry": {"type": "Point", "coordinates": [94.17611735171873, -24.423562201420072]}}, {"type": "Feature", "properties": {"norad_id": 66590, "name": "STARLINK-35429", "group": "last-30-days", "lat": -23.265407282882325, "lon": 92.49339644528472, "alt_km": 344.2451452257128, "timestamp": "2025-12-03T22:42:31.476799+00:00", "meta": {"OBJECT_NAME": "STARLINK-35429", "OBJECT_ID": "2025-270C", "EPOCH": "2025-12-03T08:00:01.999008", "MEAN_MOTION": 15.77742488, "ECCENTRICITY": 0.0001817, "INCLINATION": 42.9987, "RA_OF_ASC_NODE": 248.7421, "ARG_OF_PERICENTER": 266.4101, "MEAN_ANOMALY": 66.1817, "EPHEMERIS_TYPE": 0, "CLASSIFICATION_TYPE": "U", "NORAD_CAT_ID": 66590, "ELEMENT_SET_NO": 999, "REV_AT_EPOCH": 299, "BSTAR": -0.010414, "MEAN_MOTION_DOT": -0.01576532, "MEAN_MOTION_DDOT": 0}, "tle": {"line1": "1 66590U 25270C   25337.33335647 -.01576532  00000+0 -10414-1 0  9997", "line2": "2 66590  42.9987 248.7421 0001817 266.4101  66.1817 15.77742488  2994"}}, "geometry": {"type": "Point", "coordinates": [92.49339644528472, -23.265407282882325]}}, {"type": "Feature", "properties": {"norad_id": 66591, "name": "STARLINK-36058", "group": "last-30-days", "lat": -26.945088333659466, "lon": 98.05616323225678, "alt_km": 340.7604680119384, "timestamp": "2025-12-03T22:42:31.476809+00:00", "meta": {"OBJECT_NAME": "STARLINK-36058", "OBJECT_ID": "2025-270D", "EPOCH": "2025-12-03T11:08:19.732992", "MEAN_MOTION": 15.77801823, "ECCENTRICITY": 0.0002857, "INCLINATION": 43.0002, "RA_OF_ASC_NODE": 247.9345, "ARG_OF_PERICENTER": 351.0216, "MEAN_ANOMALY": 9.0603, "EPHEMERIS_TYPE": 0, "CLASSIFICATION_TYPE": "U", "NORAD_CAT_ID": 66591, "ELEMENT_SET_NO": 999, "REV_AT_EPOCH": 289, "BSTAR": -0.00058706, "MEAN_MOTION_DOT": -0.00101235, "MEAN_MOTION_DDOT": 0}, "tle": {"line1": "1 66591U 25270D   25337.46411728 -.00101235  00000+0 -58706-3 0  9998", "line2": "2 66591  43.0002 247.9345 0002857 351.0216   9.0603 15.77801823  2891"}}, "geometry": {"type": "Point", "coordinates": [98.05616323225678, -26.945088333659466]}}]}